{"type": "FeatureCollection", "features": [ {"type": "Feature", "properties": {"norad_id": 34547, "name": "COSMOS 2251 DEB", "group": "cosmos-2251-debris", "lat": 6.147241405583375, "lon": 96.87905194898755, "alt_km": 666.9061683270675, "timestamp": "2025-12-15T14:57:58.206385+00:00", "meta": {"OBJECT_NAME": "COSMOS 2251 DEB", "OBJECT_ID": "1993-036UH", "EPOCH": "2025-12-14T07:57:16.728768", "MEAN_MOTION": 14.72397238, "ECCENTRICITY": 0.00170387, "INCLINATION": 74.0312, "RA_OF_ASC_NODE": 97.6262, "ARG_OF_PERICENTER": 178.6488, "MEAN_ANOMALY": 181.4734, "EPHEMERIS_TYPE": 0, "CLASSIFICATION_TYPE": "U", "NORAD_CAT_ID": 34547, "ELEMENT_SET_NO": 999, "REV_AT_EPOCH": 88545, "BSTAR": 0.002085091, "MEAN_MOTION_DOT": 0.00013234, "MEAN_MOTION_DDOT": 0}, "tle": {"line1": "1 34547U 93036UH  25348.33144362  .00013234  00000+0  20851-2 0  9992", "line2": "2 34547  74.0312  97.6262 0017038 178.6488 181.4734 14.72397238885459"}}, "geometry": {"type": "Point", "coordinates": [96.87905194898755, 6.147241405583375]}}, {"type": "Feature", "properties": {"norad_id": 34553, "name": "COSMOS 2251 DEB", "group": "cosmos-2251-debris", "lat": 63.84278230170237, "lon": -29.276478030156593, "alt_km": 705.9333453541249, "timestamp": "2025-12-15T14:57:58.206394+00:00", "meta": {"OBJECT_NAME": "COSMOS 2251 DEB", "OBJECT_ID": "1993-036UP", "EPOCH": "2025-12-14T22:33:06.295680", "MEAN_MOTION": 14.5774696, "ECCENTRICITY": 0.00192342, "INCLINATION": 74.0247, "RA_OF_ASC_NODE": 187.7057, "ARG_OF_PERICENTER": 264.8927, "MEAN_ANOMALY": 218.4091, "EPHEMERIS_TYPE": 0, "CLASSIFICATION_TYPE": "U", "NORAD_CAT_ID": 34553, "ELEMENT_SET_NO": 999, "REV_AT_EPOCH": 88128, "BSTAR": 0.00072283252, "MEAN_MOTION_DOT": 3.283e-05, "MEAN_MOTION_DDOT": 0}, "tle": {"line1": "1 34553U 93036UP  25348.93965620  .00003283  00000+0  72283-3 0  9993", "line2": "2 34553  74.0247 187.7057 0019234 264.8927 218.4091 14.57746960881289"}}, "geometry": {"type": "Point", "coordinates": [-29.276478030156593, 63.84278230170237]}}, {"type": "Feature", "properties": {"norad_id": 34554, "name": "COSMOS 2251 DEB", "group": "cosmos-2251-debris", "lat": 11.13259580026052, "lon": -63.089684848318875, "alt_km": 750.5390034030033, "timestamp": "2025-12-15T14:57:58.206403+00:00", "meta": {"OBJECT_NAME": "COSMOS 2251 DEB", "OBJECT_ID": "1993-036UQ", "EPOCH": "2025-12-14T20:41:24.408384", "MEAN_MOTION": 14.37943074, "ECCENTRICITY": 0.00230678, "INCLINATION": 74.0392, "RA_OF_ASC_NODE": 295.0834, "ARG_OF_PERICENTER": 356.8791, "MEAN_ANOMALY": 34.34, "EPHEMERIS_TYPE": 0, "CLASSIFICATION_TYPE": "U", "NORAD_CAT_ID": 34554, "ELEMENT_SET_NO": 999, "REV_AT_EPOCH": 87786, "BSTAR": 0.00037367705, "MEAN_MOTION_DOT": 1.106e-05, "MEAN_MOTION_DDOT": 0}, "tle": {"line1": "1 34554U 93036UQ  25348.86208806  .00001106  00000+0  37368-3 0  9999", "line2": "2 34554  74.0392 295.0834 0023067 356.8791  34.3400 14.37943074877868"}}, "geometry": {"type": "Point", "coordinates": [-63.089684848318875, 11.13259580026052]}}, {"type": "Feature", "properties": {"norad_id": 34556, "name": "COSMOS 2251 DEB", "group": "cosmos-2251-debris", "lat": -42.232010474001335, "lon": -45.73001842247252, "alt_km": 638.5417765720904, "timestamp": "2025-12-15T14:57:58.206412+00:00", "meta": {"OBJECT_NAME": "COSMOS 2251 DEB", "OBJECT_ID": "1993-036US", "EPOCH": "2025-12-14T19:02:32.443584", "MEAN_MOTION": 14.77886348, "ECCENTRICITY": 0.00074336, "INCLINATION": 74.0152, "RA_OF_ASC_NODE": 120.8185, "ARG_OF_PERICENTER": 180.6592, "MEAN_ANOMALY": 308.5883, "EPHEMERIS_TYPE": 0, "CLASSIFICATION_TYPE": "U", "NORAD_CAT_ID": 34556, "ELEMENT_SET_NO": 999, "REV_AT_EPOCH": 88359, "BSTAR": 0.0020101225, "MEAN_MOTION_DOT": 0.00014472, "MEAN_MOTION_DDOT": 0}, "tle": {"line1": "1 34556U 93036US  25348.79343106  .00014472  00000+0  20101-2 0  9992", "line2": "2 34556  74.0152 120.8185 0007433 180.6592 308.5883 14.77886348883591"}}, "geometry": {"type": "Point", "coordinates": [-45.73001842247252, -42.232010474001335]}}, {"type": "Feature", "properties": {"norad_id": 34560, "name": "COSMOS 2251 DEB", "group": "cosmos-2251-debris", "lat": 55.1891858348952, "lon": 160.86212149249133, "alt_km": 657.9301414532192, "timestamp": "2025-12-15T14:57:58.206421+00:00", "meta": {"OBJECT_NAME": "COSMOS 2251 DEB", "OBJECT_ID": "1993-036UW", "EPOCH": "2025-12-14T21:19:38.312832", "MEAN_MOTION": 14.72205993, "ECCENTRICITY": 0.00144983, "INCLINATION": 74.0152, "RA_OF_ASC_NODE": 137.9458, "ARG_OF_PERICENTER": 219.6079, "MEAN_ANOMALY": 265.5618, "EPHEMERIS_TYPE": 0, "CLASSIFICATION_TYPE": "U", "NORAD_CAT_ID": 34560, "ELEMENT_SET_NO": 999, "REV_AT_EPOCH": 88283, "BSTAR": 0.0014482696, "MEAN_MOTION_DOT": 9.13e-05, "MEAN_MOTION_DDOT": 0}, "tle": {"line1": "1 34560U 93036UW  25348.88863788  .00009130  00000+0  14483-2 0  9991", "line2": "2 34560  74.0152 137.9458 0014498 219.6079 265.5618 14.72205993882830"}}, "geometry": {"type": "Point", "coordinates": [160.86212149249133, 55.1891858348952]}}, {"type": "Feature", "properties": {"norad_id": 34563, "name": "COSMOS 2251 DEB", "group": "cosmos-2251-debris", "lat": -72.39977498333793, "lon": 133.86763252008083, "alt_km": 734.4229567800367, "timestamp": "2025-12-15T14:57:58.206430+00:00", "meta": {"OBJECT_NAME": "COSMOS 2251 DEB", "OBJECT_ID": "1993-036UZ", "EPOCH": "2025-12-14T16:24:41.264352", "MEAN_MOTION": 14.46517582, "ECCENTRICITY": 0.00138778, "INCLINATION": 74.0378, "RA_OF_ASC_NODE": 200.0786, "ARG_OF_PERICENTER": 293.9754, "MEAN_ANOMALY": 131.688, "EPHEMERIS_TYPE": 0, "CLASSIFICATION_TYPE": "U", "NORAD_CAT_ID": 34563, "ELEMENT_SET_NO": 999, "REV_AT_EPOCH": 88225, "BSTAR": 0.00045824323, "MEAN_MOTION_DOT": 1.625e-05, "MEAN_MOTION_DDOT": 0}, "tle": {"line1": "1 34563U 93036UZ  25348.68381093  .00001625  00000+0  45824-3 0  9991", "line2": "2 34563  74.0378 200.0786 0013877 293.9754 131.6880 14.46517582882255"}}, "geometry": {"type": "Point", "coordinates": [133.86763252008083, -72.39977498333793]}}, {"type": "Feature", "properties": {"norad_id": 34564, "name": "COSMOS 2251 DEB", "group": "cosmos-2251-debris", "lat": -3.863026773426568, "lon": -128.43112706758563, "alt_km": 746.4864295955504, "timestamp": "2025-12-15T14:57:58.206439+00:00", "meta": {"OBJECT_NAME": "COSMOS 2251 DEB", "OBJECT_ID": "1993-036VA", "EPOCH": "2025-12-14T22:23:49.304256", "MEAN_MOTION": 14.40694109, "ECCENTRICITY": 0.00191127, "INCLINATION": 74.0319, "RA_OF_ASC_NODE": 233.9536, "ARG_OF_PERICENTER": 337.5957, "MEAN_ANOMALY": 39.2124, "EPHEMERIS_TYPE": 0, "CLASSIFICATION_TYPE": "U", "NORAD_CAT_ID": 34564, "ELEMENT_SET_NO": 999, "REV_AT_EPOCH": 88038, "BSTAR": 0.00027082322, "MEAN_MOTION_DOT": 8.4e-06, "MEAN_MOTION_DDOT": 0}, "tle": {"line1": "1 34564U 93036VA  25348.93320954  .00000840  00000+0  27082-3 0  9993", "line2": "2 34564  74.0319 233.9536 0019112 337.5957  39.2124 14.40694109880388"}}, "geometry": {"type": "Point", "coordinates": [-128.43112706758563, -3.863026773426568]}}, {"type": "Feature", "properties": {"norad_id": 34567, "name": "COSMOS 2251 DEB", "group": "cosmos-2251-debris", "lat": -46.71363543341108, "lon": -10.722543946449333, "alt_km": 764.8349064770146, "timestamp": "2025-12-15T14:57:58.206448+00:00", "meta": {"OBJECT_NAME": "COSMOS 2251 DEB", "OBJECT_ID": "1993-036VD", "EPOCH": "2025-12-14T17:46:08.082912", "MEAN_MOTION": 14.24018809, "ECCENTRICITY": 0.00744027, "INCLINATION": 74.04, "RA_OF_ASC_NODE": 153.1792, "ARG_OF_PERICENTER": 227.006, "MEAN_ANOMALY": 156.0751, "EPHEMERIS_TYPE": 0, "CLASSIFICATION_TYPE": "U", "NORAD_CAT_ID": 34567, "ELEMENT_SET_NO": 999, "REV_AT_EPOCH": 87153, "BSTAR": 0.00027217787, "MEAN_MOTION_DOT": 6.17e-06, "MEAN_MOTION_DDOT": 0}, "tle": {"line1": "1 34567U 93036VD  25348.74037133  .00000617  00000+0  27218-3 0  9992", "line2": "2 34567  74.0400 153.1792 0074402 227.0060 156.0751 14.24018809871530"}}, "geometry": {"type": "Point", "coordinates": [-10.722543946449333, -46.71363543341108]}}, {"type": "Feature", "properties": {"norad_id": 34569, "name": "COSMOS 2251 DEB", "group": "cosmos-2251-debris", "lat": 41.53934503322229, "lon": -152.34111193883592, "alt_km": 701.1977180572994, "timestamp": "2025-12-15T14:57:58.206457+00:00", "meta": {"OBJECT_NAME": "COSMOS 2251 DEB", "OBJECT_ID": "1993-036VF", "EPOCH": "2025-12-14T22:12:56.153952", "MEAN_MOTION": 14.24757953, "ECCENTRICITY": 0.01574027, "INCLINATION": 73.9894, "RA_OF_ASC_NODE": 194.1836, "ARG_OF_PERICENTER": 22.0817, "MEAN_ANOMALY": 42.514, "EPHEMERIS_TYPE": 0, "CLASSIFICATION_TYPE": "U", "NORAD_CAT_ID": 34569, "ELEMENT_SET_NO": 999, "REV_AT_EPOCH": 86999, "BSTAR": 0.00050942547, "MEAN_MOTION_DOT": 1.324e-05, "MEAN_MOTION_DDOT": 0}, "tle": {"line1": "1 34569U 93036VF  25348.92564993  .00001324  00000+0  50943-3 0  9990", "line2": "2 34569  73.9894 194.1836 0157402  22.0817  42.5140 14.24757953869994"}}, "geometry": {"type": "Point", "coordinates": [-152.34111193883592, 41.53934503322229]}}, {"type": "Feature", "properties": {"norad_id": 34570, "name": "COSMOS 2251 DEB", "group": "cosmos-2251-debris", "lat": 67.59487134696734, "lon": -102.47117154686187, "alt_km": 757.891051892344, "timestamp": "2025-12-15T14:57:58.206465+00:00", "meta": {"OBJECT_NAME": "COSMOS 2251 DEB", "OBJECT_ID": "1993-036VG", "EPOCH": "2025-12-14T08:17:21.255360", "MEAN_MOTION": 13.99822663, "ECCENTRICITY": 0.01902594, "INCLINATION": 73.957, "RA_OF_ASC_NODE": 215.4903, "ARG_OF_PERICENTER": 97.6254, "MEAN_ANOMALY": 18.4762, "EPHEMERIS_TYPE": 0, "CLASSIFICATION_TYPE": "U", "NORAD_CAT_ID": 34570, "ELEMENT_SET_NO": 999, "REV_AT_EPOCH": 85623, "BSTAR": 0.00061552902, "MEAN_MOTION_DOT": 1.032e-05, "MEAN_MOTION_DDOT": 0}, "tle": {"line1": "1 34570U 93036VG  25348.34538490  .00001032  00000+0  61553-3 0  9996", "line2": "2 34570  73.9570 215.4903 0190259  97.6254  18.4762 13.99822663856236"}}, "geometry": {"type": "Point", "coordinates": [-102.47117154686187, 67.59487134696734]}}]}